[
	{"zip":94102, "name":"Hayes Valley" ,"subs":10465},
	{"zip":94103, "name":"SoMa" ,"subs":11399},
	{"zip":94105, "name":"Financial District" ,"subs":18560},
	{"zip":94107, "name":"Portrero Hill" ,"subs":28209},
	{"zip":94108, "name":"Chinatown" ,"subs":1915},
	{"zip":94109, "name":"Russian Hill" ,"subs":5054},
	{"zip":94110, "name":"Mission District" ,"subs":2825},
	{"zip":94111, "name":"Embarcadero North" ,"subs":12233},
	{"zip":94112, "name":"Ingleside" ,"subs":1581},
	{"zip":94114, "name":"Castro" ,"subs":2837},
	{"zip":94115, "name":"Pacific Heights" ,"subs":1946},
	{"zip":94116, "name":"Outer Sunset" ,"subs":1047},
	{"zip":94117, "name":"Haight" ,"subs":2698},
	{"zip":94118, "name":"Richmond" ,"subs":2184},
	{"zip":94121, "name":"Outer Richmond" ,"subs":1072},
	{"zip":94122, "name":"Sunset District" ,"subs":1493},
	{"zip":94123, "name":"Marina" ,"subs":726},
	{"zip":94124, "name":"Bayview" ,"subs":1149},
	{"zip":94127, "name":"West Portal" ,"subs":476},
	{"zip":94129, "name":"Presidio" ,"subs":285},
	{"zip":94130, "name":"Treasure Island" ,"subs":499},
	{"zip":94131, "name":"Twin Peaks" ,"subs":1706},
	{"zip":94132, "name":"Lake Merced" ,"subs":701},
	{"zip":94133, "name":"North Beach" ,"subs":15185},
	{"zip":94134, "name":"Visitacion Valley" ,"subs":422},
	{"zip":94158, "name":"Outer Mission" ,"subs":4493},
	{"zip":94104, "name":"Embarcadero" ,"subs":1275}
]